IRIDIUM 150             
1 43257U 18030J   23331.48258760  .00000282  00000+0  93797-4 0  9995
2 43257  86.3942 320.2786 0002569  94.3281 265.8209 14.34222825296475
IRIDIUM 143             
1 43258U 18030K   23331.53331561  .00000298  00000+0  99470-4 0  9994
2 43258  86.3946 320.3130 0002466  86.3582 273.7896 14.34222094296417
IRIDIUM 161             
1 43478U 18047C   23331.46116316  .00000801  00000+0  23209-3 0  9993
2 43478  86.4470 118.3197 0002074  93.7759 266.3679 14.43285373290606
IRIDIUM 152             
1 43479U 18047D   23331.43626480  .00000593  00000+0  20462-3 0  9995
2 43479  86.3946 118.1898 0002211  87.8698 272.2751 14.34224349288799
IRIDIUM 147             
1 43480U 18047E   23331.51237842  .00000480  00000+0  16442-3 0  9994
2 43480  86.3947 118.1470 0001930  99.7170 260.4243 14.34221328288803
IRIDIUM 110             
1 43481U 18047F   23331.44894739  .00000598  00000+0  20650-3 0  9997
2 43481  86.3948 118.2406 0001969 101.5942 258.5475 14.34224020288780
IRIDIUM 162             
1 43482U 18047G   23331.45486534  .00000804  00000+0  23307-3 0  9991
2 43482  86.4474 118.2254 0002061  92.6875 267.4561 14.43284957290598
IRIDIUM 160             
1 43569U 18061A   23331.39478781  .00000614  00000+0  21219-3 0  9990
2 43569  86.3961  86.6191 0001777  86.4155 273.7244 14.34224761279678
